{"type":"FeatureCollection","crs":{"type":"name","properties":{"name":"EPSG:4326"}},"features":[{"type":"Feature","geometry":{"type":"MultiPolygon","coordinates":[[[[0.608113907189036,51.4015436391241],[0.615324178551404,51.3953841238209],[0.597014785817756,51.3960797906858],[0.608113907189036,51.4015436391241]]],[[[0.582572584376833,51.4031341862917],[0.561520430470314,51.402233422324],[0.564435834328907,51.4079545427279],[0.582572584376833,51.4031341862917]]],[[[0.590771860836167,51.4793713460179],[0.615242150910657,51.4751109773912],[0.659953033847258,51.4776694098738],[0.690283421546067,51.4593783879044],[0.671336659776413,51.4722645245027],[0.700321276501137,51.4725957496523],[0.720507730715131,51.4597628214107],[0.723477057480236,51.4445125210234],[0.710336835188912,51.4348306739577],[0.677839495660246,51.4331777824218],[0.672000159962251,51.4480068219982],[0.658921251336351,51.4473668161764],[0.636037588004861,51.4462434653696],[0.618998377363623,51.4374609748038],[0.605211274930445,51.4205483820036],[0.617350756357686,51.4284301785473],[0.623750538591582,51.42411576561],[0.610877332774769,51.4174016995784],[0.58704291822536,51.4134510989814],[0.563548610624482,51.4095514171949],[0.532457405934914,51.4126752013126],[0.515656065280089,51.40035517057],[0.522582468802749,51.3851000005006],[0.537549271413019,51.4102807507338],[0.560969312344262,51.3947901973103],[0.585647977848983,51.3887312215227],[0.594530655271358,51.3865487400617],[0.602097565642981,51.3906350148435],[0.596739085161682,51.3868259546596],[0.612054542068478,51.3788451150871],[0.619609325176722,51.3881603536763],[0.632369758969761,51.3889357646207],[0.626121810076958,51.3788125499944],[0.623292522422213,51.3692226415195],[0.63490813345762,51.3663699845452],[0.601403554174045,51.3333011048713],[0.563457198962717,51.3387431250211],[0.544003569633395,51.3278964123716],[0.525641085381921,51.3347171670639],[0.505845958766913,51.3429369755333],[0.503039344873498,51.354710562773],[0.456233540778611,51.3687628438094],[0.453485925272683,51.3406104311936],[0.418594662757666,51.3479121920606],[0.399919664491311,51.3444569026071],[0.401283124306125,51.35295476259],[0.431109487937637,51.3880330266591],[0.45332222350032,51.3913787704197],[0.451853402814579,51.3983210211132],[0.467687121016724,51.3983013741054],[0.475140243345384,51.412947138434],[0.489235421459888,51.415325902756],[0.487960076101346,51.4432845747706],[0.457560479333401,51.4582957169035],[0.454345031858931,51.4634198868062],[0.467729303920621,51.4642956280501],[0.458122647129502,51.4669575644424],[0.468461923525824,51.4826582329036],[0.546076139506005,51.4871380955421],[0.590771860836167,51.4793713460179]]]]},"properties":{"LAD24CD":"E06000035","LAD24NM":"Medway"}},{"type":"Feature","geometry":{"type":"Polygon","coordinates":[[[0.973278769991517,51.2685947011505],[0.998201764536517,51.2513658374805],[0.98617416663555,51.2358679275338],[1.00539822153655,51.208486295856],[0.989399693095918,51.1902330547953],[1.00396996259874,51.1800529518788],[0.998436761331318,51.1647410008761],[1.01692318386774,51.1612010705517],[1.0086223946532,51.1450030685068],[1.029240945946,51.1325382915445],[1.01211773153052,51.1172003453989],[0.995513138651133,51.1223586018668],[0.979664713467052,51.1121612763591],[0.985172824272586,51.0976004397872],[0.967347282829138,51.0768978717124],[0.968928824862042,51.0629259367103],[0.944677868522481,51.0548395397879],[0.934195719344983,51.0611514065493],[0.92279393253596,51.0520745614252],[0.903325122841842,51.0504622124172],[0.894473204131428,51.036978536916],[0.870435321076767,51.0523099570633],[0.869684578193792,51.0441127913573],[0.853441042433627,51.043148827547],[0.854809948145074,51.0317634033708],[0.839076253904102,51.0313371314373],[0.830872141257871,51.0493714519338],[0.778956704972181,50.9894920251371],[0.74061137766967,51.0006767086619],[0.706770603419155,50.9936018231459],[0.676955919326293,51.0032987859205],[0.661399802568737,51.0177718615141],[0.605390823945922,51.0120699758106],[0.593270464908968,51.0414053177199],[0.611717197291198,51.0635462632039],[0.646674841425981,51.0832813402071],[0.629194282316514,51.0914326431172],[0.596542285236321,51.0901504977113],[0.590330190794803,51.1113212793823],[0.609007828109756,51.1179003020705],[0.603696921050306,51.1317175878435],[0.639475075986475,51.1412933659131],[0.664551058572249,51.1713480716875],[0.685031018391491,51.178698503503],[0.683817664256795,51.1911138076676],[0.709830361113984,51.1996180571433],[0.716901965171267,51.2111819295769],[0.745477533435852,51.2093255633331],[0.782455390996816,51.2393650292707],[0.792611080122781,51.2381304661443],[0.795118069546067,51.2285344190026],[0.822169331483995,51.224347697565],[0.841768099989247,51.2371016836342],[0.859873527060566,51.2308377962895],[0.863494171484219,51.2388721591943],[0.919530184091044,51.2511026029702],[0.923650865268426,51.2593934538286],[0.949122169820361,51.2560341913337],[0.955032298732269,51.2702458933181],[0.973278769991517,51.2685947011505]]]},"properties":{"LAD24CD":"E07000105","LAD24NM":"Ashford"}},{"type":"Feature","geometry":{"type":"Polygon","coordinates":[[[1.25009821652181,51.3293364427624],[1.23229691312367,51.3323242697512],[1.23417364250961,51.326126299959],[1.22054559857743,51.3236972795003],[1.22938354966188,51.3160663343463],[1.20508439658685,51.3008095157442],[1.19994476685048,51.2915539548579],[1.21223276877662,51.282641713005],[1.19480064966403,51.2692865108687],[1.19262952995904,51.2571789952371],[1.21154509870001,51.2524269032771],[1.1855485461872,51.2178200303877],[1.19714402958231,51.219635575567],[1.22219426170819,51.2073953232439],[1.19457775077979,51.1841444050031],[1.18083916944454,51.1904796707328],[1.16344437538277,51.1842149632153],[1.15362978896215,51.1909113261569],[1.14763186024973,51.1771736385723],[1.11604293278563,51.1878134264517],[1.11812014398525,51.1963264798477],[1.10896693709399,51.1869711600199],[1.09119816046696,51.1890158920846],[1.05825754996227,51.2050041949687],[1.04957821242098,51.1849879658497],[1.00396996259874,51.1800529518788],[0.989399693095918,51.1902330547953],[1.00539822153655,51.208486295856],[0.98617416663555,51.2358679275338],[0.998201764536517,51.2513658374805],[0.973278769991517,51.2685947011505],[1.00596759515751,51.2837830066946],[1.00665229020904,51.3095414214476],[1.01710120719194,51.3129085090484],[0.971964542447926,51.338244158075],[0.958078061285166,51.3379471381679],[0.950414740583615,51.3456049271966],[1.00524604268779,51.3492001482652],[1.03318144219733,51.3655771759286],[1.1596891505671,51.3747237751331],[1.2241831202554,51.379332878425],[1.22483211004496,51.3793401266833],[1.22927355205124,51.3651460486215],[1.2128742792341,51.3660440779695],[1.21383134810831,51.3567721858328],[1.25009821652181,51.3293364427624]]]},"properties":{"LAD24CD":"E07000106","LAD24NM":"Canterbury"}},{"type":"Feature","geometry":{"type":"Polygon","coordinates":[[[0.315243953724765,51.4649044518962],[0.310685334757213,51.4530449153959],[0.326328168008005,51.4428025876881],[0.344623704653886,51.3934107908627],[0.336678980323618,51.3865438878369],[0.274894244117015,51.407457134859],[0.245744537079278,51.4077123522268],[0.238273221529145,51.3962996629392],[0.20753155738838,51.3968442767175],[0.213529272477456,51.4048494927397],[0.199758777108728,51.4179756896287],[0.152932433172376,51.4087084822957],[0.155875040956964,51.430876583241],[0.164328170821928,51.4285849613143],[0.172844869107023,51.4432871518183],[0.203374621646498,51.4543154589105],[0.221177283091669,51.4787996029256],[0.274500703638176,51.4536755902875],[0.301804957401121,51.4612028464473],[0.315243953724765,51.4649044518962]]]},"properties":{"LAD24CD":"E07000107","LAD24NM":"Dartford"}},{"type":"Feature","geometry":{"type":"Polygon","coordinates":[[[1.25009821652181,51.3293364427624],[1.34530468873694,51.3079727866563],[1.35850207417454,51.3120379550319],[1.35789187559494,51.3114918368691],[1.37136124844997,51.3139047720516],[1.37866325393103,51.2956778840663],[1.37864211129254,51.2923675969602],[1.40486495276765,51.2300790135871],[1.40537112079003,51.1747342847677],[1.39537790667435,51.1564652752699],[1.37676755723596,51.1408039159305],[1.34287056357159,51.1310048765592],[1.34290782851472,51.1302629106532],[1.34274081214762,51.1302157567811],[1.34324529130292,51.1235433327606],[1.34333118795327,51.1218327846173],[1.33849758732542,51.1274329095989],[1.33758036843995,51.1272496538196],[1.31650646803134,51.123044929731],[1.32307258293231,51.1140851309688],[1.3101136224738,51.1167899530221],[1.31765480944312,51.1144877360553],[1.31365510371341,51.1147847953585],[1.32775759189465,51.1113730144946],[1.31727164637636,51.1121976668353],[1.30230314325098,51.1133731500023],[1.30023762442193,51.112680140235],[1.26766086924805,51.1017424882526],[1.22114189838816,51.0980893889158],[1.22001964052075,51.0975019192499],[1.20437170139432,51.0971917698531],[1.19493872028345,51.1030297836429],[1.19736760936465,51.1181487223812],[1.17155429372955,51.1242368879487],[1.211064762566,51.1514766407317],[1.2076777917894,51.1568343588373],[1.19065899966904,51.1540157762685],[1.17073509558702,51.1631360375853],[1.16099873406119,51.1583074626652],[1.14373077445535,51.1657763288577],[1.14763186024973,51.1771736385723],[1.15362978896215,51.1909113261569],[1.16344437538277,51.1842149632153],[1.18083916944454,51.1904796707328],[1.19457775077979,51.1841444050031],[1.22219426170819,51.2073953232439],[1.19714402958231,51.219635575567],[1.1855485461872,51.2178200303877],[1.21154509870001,51.2524269032771],[1.19262952995904,51.2571789952371],[1.19480064966403,51.2692865108687],[1.21223276877662,51.282641713005],[1.19994476685048,51.2915539548579],[1.20508439658685,51.3008095157442],[1.22938354966188,51.3160663343463],[1.22054559857743,51.3236972795003],[1.23417364250961,51.326126299959],[1.23229691312367,51.3323242697512],[1.25009821652181,51.3293364427624]]]},"properties":{"LAD24CD":"E07000108","LAD24NM":"Dover"}},{"type":"Feature","geometry":{"type":"Polygon","coordinates":[[[0.457560479333401,51.4582957169035],[0.487960076101346,51.4432845747706],[0.489235421459888,51.415325902756],[0.475140243345384,51.412947138434],[0.467687121016724,51.3983013741054],[0.451853402814579,51.3983210211132],[0.45332222350032,51.3913787704197],[0.431109487937637,51.3880330266591],[0.401283124306125,51.35295476259],[0.37911018517935,51.3380221133365],[0.379817222370515,51.3296914307057],[0.341604421171004,51.3292161562799],[0.336678980323618,51.3865438878369],[0.344623704653886,51.3934107908627],[0.326328168008005,51.4428025876881],[0.310685334757213,51.4530449153959],[0.315243953724765,51.4649044518962],[0.315395124473243,51.4649460802575],[0.32527351028782,51.450241419189],[0.381992268501976,51.4435052154531],[0.44025483488637,51.4474249646865],[0.459295913922694,51.4555296101861],[0.457560479333401,51.4582957169035]]]},"properties":{"LAD24CD":"E07000109","LAD24NM":"Gravesham"}},{"type":"Feature","geometry":{"type":"Polygon","coordinates":[[[0.601403554174045,51.3333011048713],[0.604424480576533,51.3256970914135],[0.613412365120945,51.3349385953865],[0.63945152562386,51.3367559809032],[0.664320665241623,51.3289294107766],[0.673844753621703,51.2932717637991],[0.713817179163023,51.2994077132011],[0.743626909034297,51.2785766318578],[0.760063694713229,51.2793143802229],[0.749640681161822,51.2586438057354],[0.761955479504863,51.2563776481773],[0.776882352916547,51.2665676027566],[0.790547129696035,51.2617805286433],[0.792611080122781,51.2381304661443],[0.782455390996816,51.2393650292707],[0.745477533435852,51.2093255633331],[0.716901965171267,51.2111819295769],[0.709830361113984,51.1996180571433],[0.683817664256795,51.1911138076676],[0.685031018391491,51.178698503503],[0.664551058572249,51.1713480716875],[0.639475075986475,51.1412933659131],[0.632545495143112,51.1452955476749],[0.640340470520972,51.1524743523692],[0.617199953781171,51.1482764458562],[0.601855724183474,51.1590161945922],[0.593515591115623,51.1533049790113],[0.575672633903326,51.1561134273492],[0.579305815924906,51.1446361596967],[0.559065475686518,51.1339445383835],[0.562149309130583,51.1431929773374],[0.533105662658645,51.1341528523793],[0.496896420340315,51.1447764513492],[0.469642107782146,51.1430222157422],[0.467671672986978,51.1561814152414],[0.44075379663605,51.1765128766504],[0.41640085648925,51.1805476489911],[0.384246779214305,51.1982658092224],[0.400344986655227,51.1985721626835],[0.408801571866475,51.2216682870587],[0.378698701343143,51.2350440777529],[0.409577973411235,51.2530120902836],[0.431283314665172,51.2490920522581],[0.432528813724184,51.2701369045216],[0.477656425071307,51.2722753362684],[0.499043800752973,51.2967753485136],[0.49251868074662,51.3045672709161],[0.511615594575655,51.3064345404207],[0.525641085381921,51.3347171670639],[0.544003569633395,51.3278964123716],[0.563457198962717,51.3387431250211],[0.601403554174045,51.3333011048713]]]},"properties":{"LAD24CD":"E07000110","LAD24NM":"Maidstone"}},{"type":"Feature","geometry":{"type":"Polygon","coordinates":[[[0.336678980323618,51.3865438878369],[0.341604421171004,51.3292161562799],[0.306889619562347,51.3431263493181],[0.304674634521184,51.3508061928972],[0.285766362322396,51.344994794742],[0.284562577168995,51.3250116648334],[0.265144095725887,51.3136373458231],[0.258453391993337,51.2972915719381],[0.263841207261726,51.2557855909626],[0.247332385013259,51.2552944078811],[0.247012834512874,51.2376860917324],[0.230962649545534,51.2322302752052],[0.22308590501378,51.2449715986032],[0.2005423369464,51.2337586440062],[0.212339510298549,51.2245975552051],[0.201945959369765,51.2205532669601],[0.207916622381616,51.2105892644016],[0.25081097256037,51.2005769021871],[0.226962983791121,51.184106383934],[0.190971342203488,51.1713780142528],[0.2121343110653,51.1516304641405],[0.180407322766635,51.1318045049806],[0.160718236048252,51.1373289192539],[0.133117086399998,51.1472785195743],[0.0500165286936347,51.1426500167773],[0.0526003640340758,51.1806240184208],[0.0335989515635273,51.2143379727583],[0.0582428302016134,51.247778326722],[0.042396497430127,51.2926730476417],[0.085693083414603,51.2930842274768],[0.085029299988601,51.3160232052895],[0.117900333226097,51.329647100945],[0.118456303441167,51.3441477832474],[0.136958108456318,51.3441746058011],[0.152057738933261,51.3696937056142],[0.147741030714359,51.3928010027283],[0.162384150043184,51.3924903029428],[0.148869410494427,51.4084291289347],[0.152932433172376,51.4087084822957],[0.199758777108728,51.4179756896287],[0.213529272477456,51.4048494927397],[0.20753155738838,51.3968442767175],[0.238273221529145,51.3962996629392],[0.245744537079278,51.4077123522268],[0.274894244117015,51.407457134859],[0.336678980323618,51.3865438878369]]]},"properties":{"LAD24CD":"E07000111","LAD24NM":"Sevenoaks"}},{"type":"Feature","geometry":{"type":"Polygon","coordinates":[[[1.14763186024973,51.1771736385723],[1.14373077445535,51.1657763288577],[1.16099873406119,51.1583074626652],[1.17073509558702,51.1631360375853],[1.19065899966904,51.1540157762685],[1.2076777917894,51.1568343588373],[1.211064762566,51.1514766407317],[1.17155429372955,51.1242368879487],[1.19736760936465,51.1181487223812],[1.19493872028345,51.1030297836429],[1.20437170139432,51.0971917698531],[1.22001964052075,51.0975019192499],[1.18550583066265,51.0794221404809],[1.19482602320678,51.0759384098751],[1.13880979752437,51.0689475105179],[1.06044813827741,51.0591193138043],[0.996748200789708,51.0245871446972],[0.964430399280059,50.9687987149762],[0.970986301420131,50.941615351054],[0.977909815538157,50.9128752282058],[0.943201285411825,50.9155404542662],[0.85507854473333,50.923910466736],[0.854705287607954,50.9239435842906],[0.867891381774926,50.933262295643],[0.855967970123694,50.9531286066064],[0.841401377893081,50.9576088287223],[0.812941746895733,50.941999575237],[0.784327858018418,50.9772296872172],[0.777134928696756,50.9754283500105],[0.778956704972181,50.9894920251371],[0.830872141257871,51.0493714519338],[0.839076253904102,51.0313371314373],[0.854809948145074,51.0317634033708],[0.853441042433627,51.043148827547],[0.869684578193792,51.0441127913573],[0.870435321076767,51.0523099570633],[0.894473204131428,51.036978536916],[0.903325122841842,51.0504622124172],[0.92279393253596,51.0520745614252],[0.934195719344983,51.0611514065493],[0.944677868522481,51.0548395397879],[0.968928824862042,51.0629259367103],[0.967347282829138,51.0768978717124],[0.985172824272586,51.0976004397872],[0.979664713467052,51.1121612763591],[0.995513138651133,51.1223586018668],[1.01211773153052,51.1172003453989],[1.029240945946,51.1325382915445],[1.0086223946532,51.1450030685068],[1.01692318386774,51.1612010705517],[0.998436761331318,51.1647410008761],[1.00396996259874,51.1800529518788],[1.04957821242098,51.1849879658497],[1.05825754996227,51.2050041949687],[1.09119816046696,51.1890158920846],[1.10896693709399,51.1869711600199],[1.11812014398525,51.1963264798477],[1.11604293278563,51.1878134264517],[1.14763186024973,51.1771736385723]]]},"properties":{"LAD24CD":"E07000112","LAD24NM":"Folkestone and Hythe"}},{"type":"Feature","geometry":{"type":"MultiPolygon","coordinates":[[[[0.68296919632433,51.4126452886018],[0.694510265742321,51.3967639013741],[0.672639175867811,51.3984055193624],[0.665928519130537,51.4062823352872],[0.68296919632433,51.4126452886018]]],[[[0.763713093073722,51.381956101901],[0.764352676310199,51.3628684546419],[0.734507968310769,51.3457130753144],[0.766854373816967,51.3623194270748],[0.813561773144892,51.3584870580363],[0.816232505760306,51.3461814949063],[0.817193491172904,51.3563534194694],[0.866160998023522,51.3558517472471],[0.870973641237874,51.3540427103511],[0.897166985701846,51.3441910263365],[0.880105910826525,51.3286681946766],[0.894603232587443,51.3363386138481],[0.915341144266536,51.3293776366159],[0.896773053539145,51.3414380744767],[0.950403269946465,51.3456041719403],[0.950414740583615,51.3456049271966],[0.958078061285166,51.3379471381679],[0.971964542447926,51.338244158075],[1.01710120719194,51.3129085090484],[1.00665229020904,51.3095414214476],[1.00596759515751,51.2837830066946],[0.973278769991517,51.2685947011505],[0.955032298732269,51.2702458933181],[0.949122169820361,51.2560341913337],[0.923650865268426,51.2593934538286],[0.919530184091044,51.2511026029702],[0.863494171484219,51.2388721591943],[0.859873527060566,51.2308377962895],[0.841768099989247,51.2371016836342],[0.822169331483995,51.224347697565],[0.795118069546067,51.2285344190026],[0.792611080122781,51.2381304661443],[0.790547129696035,51.2617805286433],[0.776882352916547,51.2665676027566],[0.761955479504863,51.2563776481773],[0.749640681161822,51.2586438057354],[0.760063694713229,51.2793143802229],[0.743626909034297,51.2785766318578],[0.713817179163023,51.2994077132011],[0.673844753621703,51.2932717637991],[0.664320665241623,51.3289294107766],[0.63945152562386,51.3367559809032],[0.613412365120945,51.3349385953865],[0.604424480576533,51.3256970914135],[0.601403554174045,51.3333011048713],[0.63490813345762,51.3663699845452],[0.623292522422213,51.3692226415195],[0.626121810076958,51.3788125499944],[0.632369758969761,51.3889357646207],[0.634544988918393,51.3890677778504],[0.626949713471949,51.374746166802],[0.64801143353794,51.3975551422638],[0.670097242347924,51.3732924786281],[0.686969208348972,51.3916612101936],[0.702920420776292,51.3924383056883],[0.695247180191065,51.3797911912102],[0.714357167612036,51.384176689014],[0.69654541068886,51.4199958723247],[0.727788902221975,51.4204482266655],[0.716210768230846,51.4131018767519],[0.726279314204562,51.3991428797286],[0.763713093073722,51.381956101901]]],[[[0.678799156331697,51.4235185785055],[0.687777167499511,51.4144341998226],[0.660058395634273,51.4176257833293],[0.678799156331697,51.4235185785055]]],[[[0.901366781689629,51.4168258253071],[0.950172658982103,51.3721321536237],[0.896803923025051,51.3544681086317],[0.871641256563888,51.3647206896011],[0.857697887655572,51.3703977586728],[0.856694825375606,51.3649258490694],[0.840527961124425,51.3716465346928],[0.851298781549506,51.3648336439023],[0.839447284359421,51.3636451621001],[0.806290734031111,51.3722891691117],[0.766186879767677,51.3699695207759],[0.764272588608148,51.3882605472706],[0.732677779090826,51.4002771194148],[0.721659394132739,51.4144254894947],[0.732452873378976,51.40894626593],[0.746879721796758,51.4153384730349],[0.73543685714915,51.4243733383643],[0.749376965657077,51.4460589082295],[0.78395045175577,51.4408393620351],[0.790818579369171,51.4395747537576],[0.823924189780159,51.4256415561932],[0.875094894442408,51.4198227571202],[0.901366781689629,51.4168258253071]]]]},"properties":{"LAD24CD":"E07000113","LAD24NM":"Swale"}},{"type":"Feature","geometry":{"type":"Polygon","coordinates":[[[1.35850207417454,51.3120379550319],[1.34530468873694,51.3079727866563],[1.25009821652181,51.3293364427624],[1.21383134810831,51.3567721858328],[1.2128742792341,51.3660440779695],[1.22927355205124,51.3651460486215],[1.22483211004496,51.3793401266833],[1.31507378603016,51.3803130382124],[1.37897439265898,51.3912306791184],[1.39388972204432,51.3932489839449],[1.42496071272327,51.3937782754357],[1.44121495515093,51.3874484149623],[1.44198292705929,51.3868357975145],[1.44590384777044,51.3584420364821],[1.44590904853117,51.3584043609719],[1.44589998282476,51.3583905288271],[1.42469149683926,51.3260072074338],[1.42317847854247,51.3313761566692],[1.41457013988833,51.3274916641779],[1.42355426271303,51.3243385969626],[1.37775484991453,51.3292604030862],[1.35850207417454,51.3120379550319]]]},"properties":{"LAD24CD":"E07000114","LAD24NM":"Thanet"}},{"type":"Feature","geometry":{"type":"Polygon","coordinates":[[[0.525641085381921,51.3347171670639],[0.511615594575655,51.3064345404207],[0.49251868074662,51.3045672709161],[0.499043800752973,51.2967753485136],[0.477656425071307,51.2722753362684],[0.432528813724184,51.2701369045216],[0.431283314665172,51.2490920522581],[0.409577973411235,51.2530120902836],[0.378698701343143,51.2350440777529],[0.408801571866475,51.2216682870587],[0.400344986655227,51.1985721626835],[0.384246779214305,51.1982658092224],[0.369167737003512,51.2016169643177],[0.367496839761545,51.1948534607465],[0.341717007231151,51.1927371302183],[0.308816562121868,51.199958995492],[0.277305608479776,51.1746934858577],[0.226962983791121,51.184106383934],[0.25081097256037,51.2005769021871],[0.207916622381616,51.2105892644016],[0.201945959369765,51.2205532669601],[0.212339510298549,51.2245975552051],[0.2005423369464,51.2337586440062],[0.22308590501378,51.2449715986032],[0.230962649545534,51.2322302752052],[0.247012834512874,51.2376860917324],[0.247332385013259,51.2552944078811],[0.263841207261726,51.2557855909626],[0.258453391993337,51.2972915719381],[0.265144095725887,51.3136373458231],[0.284562577168995,51.3250116648334],[0.285766362322396,51.344994794742],[0.304674634521184,51.3508061928972],[0.306889619562347,51.3431263493181],[0.341604421171004,51.3292161562799],[0.379817222370515,51.3296914307057],[0.37911018517935,51.3380221133365],[0.401283124306125,51.35295476259],[0.399919664491311,51.3444569026071],[0.418594662757666,51.3479121920606],[0.453485925272683,51.3406104311936],[0.456233540778611,51.3687628438094],[0.503039344873498,51.354710562773],[0.505845958766913,51.3429369755333],[0.525641085381921,51.3347171670639]]]},"properties":{"LAD24CD":"E07000115","LAD24NM":"Tonbridge and Malling"}},{"type":"Feature","geometry":{"type":"Polygon","coordinates":[[[0.384246779214305,51.1982658092224],[0.41640085648925,51.1805476489911],[0.44075379663605,51.1765128766504],[0.467671672986978,51.1561814152414],[0.469642107782146,51.1430222157422],[0.496896420340315,51.1447764513492],[0.533105662658645,51.1341528523793],[0.562149309130583,51.1431929773374],[0.559065475686518,51.1339445383835],[0.579305815924906,51.1446361596967],[0.575672633903326,51.1561134273492],[0.593515591115623,51.1533049790113],[0.601855724183474,51.1590161945922],[0.617199953781171,51.1482764458562],[0.640340470520972,51.1524743523692],[0.632545495143112,51.1452955476749],[0.639475075986475,51.1412933659131],[0.603696921050306,51.1317175878435],[0.609007828109756,51.1179003020705],[0.590330190794803,51.1113212793823],[0.596542285236321,51.0901504977113],[0.629194282316514,51.0914326431172],[0.646674841425981,51.0832813402071],[0.611717197291198,51.0635462632039],[0.593270464908968,51.0414053177199],[0.605390823945922,51.0120699758106],[0.570801043736655,51.0034823164113],[0.541719760675965,51.0111085124189],[0.537568517875719,51.0216392178518],[0.472319209676433,51.0304360887881],[0.463267138803114,51.0547870173775],[0.418266860755534,51.0626269713542],[0.396496475173542,51.0831316884844],[0.373840828926189,51.0884605030414],[0.350831195947389,51.0840559156746],[0.358976559646714,51.1045306546083],[0.335077206061616,51.1054658909701],[0.32516510810618,51.1229560795919],[0.274874930408996,51.1206517720545],[0.275613215976201,51.112298517214],[0.244577828429569,51.1148342412447],[0.226255230233864,51.1244861160789],[0.171472727638366,51.1154149026254],[0.151187333045437,51.1238205532318],[0.160718236048252,51.1373289192539],[0.180407322766635,51.1318045049806],[0.2121343110653,51.1516304641405],[0.190971342203488,51.1713780142528],[0.226962983791121,51.184106383934],[0.277305608479776,51.1746934858577],[0.308816562121868,51.199958995492],[0.341717007231151,51.1927371302183],[0.367496839761545,51.1948534607465],[0.369167737003512,51.2016169643177],[0.384246779214305,51.1982658092224]]]},"properties":{"LAD24CD":"E07000116","LAD24NM":"Tunbridge Wells"}}]}
